[{"OBJECT_NAME":"ONEWEB-0205","OBJECT_ID":"2021-031S","EPOCH":"2026-06-08T07:23:38.823936","MEAN_MOTION":13.14504461,"ECCENTRICITY":0.0001968,"INCLINATION":87.8967,"RA_OF_ASC_NODE":291.4656,"ARG_OF_PERICENTER":107.8783,"MEAN_ANOMALY":252.2561,"EPHEMERIS_TYPE":0,"CLASSIFICATION_TYPE":"U","NORAD_CAT_ID":48226,"ELEMENT_SET_NO":999,"REV_AT_EPOCH":24710,"BSTAR":-0.00025382,"MEAN_MOTION_DOT":-8.1e-07,"MEAN_MOTION_DDOT":0.0},{"OBJECT_NAME":"ONEWEB-0206","OBJECT_ID":"2021-031T","EPOCH":"2026-06-08T03:05:37.628736","MEAN_MOTION":13.14502823,"ECCENTRICITY":0.0001817,"INCLINATION":87.8963,"RA_OF_ASC_NODE":291.5035,"ARG_OF_PERICENTER":94.3032,"MEAN_ANOMALY":265.8305,"EPHEMERIS_TYPE":0,"CLASSIFICATION_TYPE":"U","NORAD_CAT_ID":48227,"ELEMENT_SET_NO":999,"REV_AT_EPOCH":24703,"BSTAR":0.00057055,"MEAN_MOTION_DOT":2.24e-06,"MEAN_MOTION_DDOT":0.0},{"OBJECT_NAME":"ONEWEB-0182","OBJECT_ID":"2021-031U","EPOCH":"2026-06-08T02:58:46.343136","MEAN_MOTION":13.14501547,"ECCENTRICITY":0.0002097,"INCLINATION":87.8958,"RA_OF_ASC_NODE":291.5126,"ARG_OF_PERICENTER":97.0503,"MEAN_ANOMALY":263.0865,"EPHEMERIS_TYPE":0,"CLASSIFICATION_TYPE":"U","NORAD_CAT_ID":48228,"ELEMENT_SET_NO":999,"REV_AT_EPOCH":24724,"BSTAR":0.00066003,"MEAN_MOTION_DOT":2.57e-06,"MEAN_MOTION_DDOT":0.0},{"OBJECT_NAME":"ONEWEB-0186","OBJECT_ID":"2021-031V","EPOCH":"2026-06-08T01:25:08.561568","MEAN_MOTION":13.14502084,"ECCENTRICITY":0.0001954,"INCLINATION":87.8969,"RA_OF_ASC_NODE":291.5152,"ARG_OF_PERICENTER":102.8506,"MEAN_ANOMALY":257.2843,"EPHEMERIS_TYPE":0,"CLASSIFICATION_TYPE":"U","NORAD_CAT_ID":48229,"ELEMENT_SET_NO":999,"REV_AT_EPOCH":24718,"BSTAR":0.00035858,"MEAN_MOTION_DOT":1.46e-06,"MEAN_MOTION_DDOT":0.0},{"OBJECT_NAME":"ONEWEB-0181","OBJECT_ID":"2021-031W","EPOCH":"2026-06-08T02:42:47.542464","MEAN_MOTION":13.14502877,"ECCENTRICITY":0.0001879,"INCLINATION":87.8946,"RA_OF_ASC_NODE":291.5356,"ARG_OF_PERICENTER":106.6034,"MEAN_ANOMALY":253.5303,"EPHEMERIS_TYPE":0,"CLASSIFICATION_TYPE":"U","NORAD_CAT_ID":48230,"ELEMENT_SET_NO":999,"REV_AT_EPOCH":24704,"BSTAR":0.00034807,"MEAN_MOTION_DOT":1.42e-06,"MEAN_MOTION_DDOT":0.0},{"OBJECT_NAME":"ONEWEB-0188","OBJECT_ID":"2021-031X","EPOCH":"2026-06-08T01:47:58.972704","MEAN_MOTION":13.14503662,"ECCENTRICITY":0.000192,"INCLINATION":87.8951,"RA_OF_ASC_NODE":291.542,"ARG_OF_PERICENTER":100.8313,"MEAN_ANOMALY":259.3033,"EPHEMERIS_TYPE":0,"CLASSIFICATION_TYPE":"U","NORAD_CAT_ID":48231,"ELEMENT_SET_NO":999,"REV_AT_EPOCH":24694,"BSTAR":-0.00013020000000000002,"MEAN_MOTION_DOT":-3.5e-07,"MEAN_MOTION_DDOT":0.0},{"OBJECT_NAME":"ONEWEB-0220","OBJECT_ID":"2021-031Y","EPOCH":"2026-06-08T04:34:39.504000","MEAN_MOTION":13.14501709,"ECCENTRICITY":0.0002115,"INCLINATION":87.8964,"RA_OF_ASC_NODE":291.4909,"ARG_OF_PERICENTER":106.9371,"MEAN_ANOMALY":253.199,"EPHEMERIS_TYPE":0,"CLASSIFICATION_TYPE":"U","NORAD_CAT_ID":48232,"ELEMENT_SET_NO":999,"REV_AT_EPOCH":24722,"BSTAR":0.00034444000000000006,"MEAN_MOTION_DOT":1.4e-06,"MEAN_MOTION_DDOT":0.0},{"OBJECT_NAME":"ONEWEB-0165","OBJECT_ID":"2021-031Z","EPOCH":"2026-06-08T01:36:32.741568","MEAN_MOTION":13.14500997,"ECCENTRICITY":0.0001768,"INCLINATION":87.896,"RA_OF_ASC_NODE":291.5288,"ARG_OF_PERICENTER":111.9563,"MEAN_ANOMALY":248.1754,"EPHEMERIS_TYPE":0,"CLASSIFICATION_TYPE":"U","NORAD_CAT_ID":48233,"ELEMENT_SET_NO":999,"REV_AT_EPOCH":24716,"BSTAR":-0.00010431,"MEAN_MOTION_DOT":-2.6e-07,"MEAN_MOTION_DDOT":0.0},{"OBJECT_NAME":"ONEWEB-0199","OBJECT_ID":"2021-031AA","EPOCH":"2026-06-08T03:03:20.532672","MEAN_MOTION":13.14502467,"ECCENTRICITY":0.0001903,"INCLINATION":87.8964,"RA_OF_ASC_NODE":291.502,"ARG_OF_PERICENTER":94.5381,"MEAN_ANOMALY":265.5966,"EPHEMERIS_TYPE":0,"CLASSIFICATION_TYPE":"U","NORAD_CAT_ID":48234,"ELEMENT_SET_NO":999,"REV_AT_EPOCH":24707,"BSTAR":0.00028885,"MEAN_MOTION_DOT":1.2e-06,"MEAN_MOTION_DDOT":0.0},{"OBJECT_NAME":"ONEWEB-0203","OBJECT_ID":"2021-031AB","EPOCH":"2026-06-07T21:20:48.706368","MEAN_MOTION":13.14501576,"ECCENTRICITY":0.0001731,"INCLINATION":87.8965,"RA_OF_ASC_NODE":291.5532,"ARG_OF_PERICENTER":99.737,"MEAN_ANOMALY":260.3955,"EPHEMERIS_TYPE":0,"CLASSIFICATION_TYPE":"U","NORAD_CAT_ID":48235,"ELEMENT_SET_NO":999,"REV_AT_EPOCH":24705,"BSTAR":0.00053003,"MEAN_MOTION_DOT":2.09e-06,"MEAN_MOTION_DDOT":0.0},{"OBJECT_NAME":"ONEWEB-0197","OBJECT_ID":"2021-031AC","EPOCH":"2026-06-08T07:41:43.873152","MEAN_MOTION":13.14504106,"ECCENTRICITY":0.0002196,"INCLINATION":87.8951,"RA_OF_ASC_NODE":291.4542,"ARG_OF_PERICENTER":99.3555,"MEAN_ANOMALY":260.7824,"EPHEMERIS_TYPE":0,"CLASSIFICATION_TYPE":"U","NORAD_CAT_ID":48236,"ELEMENT_SET_NO":999,"REV_AT_EPOCH":24702,"BSTAR":-0.00041218,"MEAN_MOTION_DOT":-1.4e-06,"MEAN_MOTION_DDOT":0.0},{"OBJECT_NAME":"ONEWEB-0194","OBJECT_ID":"2021-031AD","EPOCH":"2026-06-08T01:43:24.641472","MEAN_MOTION":13.14502008,"ECCENTRICITY":0.0001727,"INCLINATION":87.8962,"RA_OF_ASC_NODE":291.5251,"ARG_OF_PERICENTER":94.4169,"MEAN_ANOMALY":265.7158,"EPHEMERIS_TYPE":0,"CLASSIFICATION_TYPE":"U","NORAD_CAT_ID":48237,"ELEMENT_SET_NO":999,"REV_AT_EPOCH":24716,"BSTAR":-0.000266,"MEAN_MOTION_DOT":-8.6e-07,"MEAN_MOTION_DDOT":0.0},{"OBJECT_NAME":"ONEWEB-0193","OBJECT_ID":"2021-031AE","EPOCH":"2026-06-08T07:35:04.218720","MEAN_MOTION":13.14502825,"ECCENTRICITY":0.0001629,"INCLINATION":87.8957,"RA_OF_ASC_NODE":291.4671,"ARG_OF_PERICENTER":88.1441,"MEAN_ANOMALY":271.9875,"EPHEMERIS_TYPE":0,"CLASSIFICATION_TYPE":"U","NORAD_CAT_ID":48238,"ELEMENT_SET_NO":999,"REV_AT_EPOCH":24714,"BSTAR":-0.00035065000000000004,"MEAN_MOTION_DOT":-1.17e-06,"MEAN_MOTION_DDOT":0.0},{"OBJECT_NAME":"ONEWEB-0191","OBJECT_ID":"2021-031AF","EPOCH":"2026-06-07T19:03:47.882016","MEAN_MOTION":13.14502369,"ECCENTRICITY":0.0002074,"INCLINATION":87.8963,"RA_OF_ASC_NODE":291.5693,"ARG_OF_PERICENTER":97.565,"MEAN_ANOMALY":262.5715,"EPHEMERIS_TYPE":0,"CLASSIFICATION_TYPE":"U","NORAD_CAT_ID":48239,"ELEMENT_SET_NO":999,"REV_AT_EPOCH":24693,"BSTAR":-0.00023048,"MEAN_MOTION_DOT":-7.3e-07,"MEAN_MOTION_DDOT":0.0},{"OBJECT_NAME":"ONEWEB-0195","OBJECT_ID":"2021-031AG","EPOCH":"2026-06-08T01:49:05.981952","MEAN_MOTION":13.14501206,"ECCENTRICITY":0.0001833,"INCLINATION":87.8965,"RA_OF_ASC_NODE":291.5139,"ARG_OF_PERICENTER":112.5029,"MEAN_ANOMALY":247.6295,"EPHEMERIS_TYPE":0,"CLASSIFICATION_TYPE":"U","NORAD_CAT_ID":48240,"ELEMENT_SET_NO":999,"REV_AT_EPOCH":24695,"BSTAR":-0.00013708,"MEAN_MOTION_DOT":-3.8e-07,"MEAN_MOTION_DDOT":0.0},{"OBJECT_NAME":"ONEWEB-0201","OBJECT_ID":"2021-031AH","EPOCH":"2026-06-08T01:32:11.365152","MEAN_MOTION":13.14503976,"ECCENTRICITY":0.0002193,"INCLINATION":87.8958,"RA_OF_ASC_NODE":291.5329,"ARG_OF_PERICENTER":100.7292,"MEAN_ANOMALY":259.4084,"EPHEMERIS_TYPE":0,"CLASSIFICATION_TYPE":"U","NORAD_CAT_ID":48241,"ELEMENT_SET_NO":999,"REV_AT_EPOCH":24718,"BSTAR":0.00011389000000000001,"MEAN_MOTION_DOT":5.5e-07,"MEAN_MOTION_DDOT":0.0}]