ONEWEB-0205             
1 48226U 21031S   26159.30808824 -.00000081  00000+0 -25382-3 0  9998
2 48226  87.8967 291.4656 0001968 107.8783 252.2561 13.14504461247106
ONEWEB-0206             
1 48227U 21031T   26159.12890774  .00000224  00000+0  57055-3 0  9993
2 48227  87.8963 291.5035 0001817  94.3032 265.8305 13.14502823247033
ONEWEB-0182             
1 48228U 21031U   26159.12414749  .00000257  00000+0  66003-3 0  9997
2 48228  87.8958 291.5126 0002097  97.0503 263.0865 13.14501547247249
ONEWEB-0186             
1 48229U 21031V   26159.05912687  .00000146  00000+0  35858-3 0  9995
2 48229  87.8969 291.5152 0001954 102.8506 257.2843 13.14502084247181
ONEWEB-0181             
1 48230U 21031W   26159.11305026  .00000142  00000+0  34807-3 0  9996
2 48230  87.8946 291.5356 0001879 106.6034 253.5303 13.14502877247043
ONEWEB-0188             
1 48231U 21031X   26159.07498811 -.00000035  00000+0 -13020-3 0  9994
2 48231  87.8951 291.5420 0001920 100.8313 259.3033 13.14503662246940
ONEWEB-0220             
1 48232U 21031Y   26159.19073500  .00000140  00000+0  34444-3 0  9990
2 48232  87.8964 291.4909 0002115 106.9371 253.1990 13.14501709247220
ONEWEB-0165             
1 48233U 21031Z   26159.06704562 -.00000026  00000+0 -10431-3 0  9991
2 48233  87.8960 291.5288 0001768 111.9563 248.1754 13.14500997247163
ONEWEB-0199             
1 48234U 21031AA  26159.12732098  .00000120  00000+0  28885-3 0  9999
2 48234  87.8964 291.5020 0001903  94.5381 265.5966 13.14502467247079
ONEWEB-0203             
1 48235U 21031AB  26158.88945262  .00000209  00000+0  53003-3 0  9999
2 48235  87.8965 291.5532 0001731  99.7370 260.3955 13.14501576247052
ONEWEB-0197             
1 48236U 21031AC  26159.32064668 -.00000140  00000+0 -41218-3 0  9993
2 48236  87.8951 291.4542 0002196  99.3555 260.7824 13.14504106247023
ONEWEB-0194             
1 48237U 21031AD  26159.07181298 -.00000086  00000+0 -26600-3 0  9992
2 48237  87.8962 291.5251 0001727  94.4169 265.7158 13.14502008247169
ONEWEB-0193             
1 48238U 21031AE  26159.31602105 -.00000117  00000+0 -35065-3 0  9995
2 48238  87.8957 291.4671 0001629  88.1441 271.9875 13.14502825247143
ONEWEB-0191             
1 48239U 21031AF  26158.79430419 -.00000073  00000+0 -23048-3 0  9993
2 48239  87.8963 291.5693 0002074  97.5650 262.5715 13.14502369246935
ONEWEB-0195             
1 48240U 21031AG  26159.07576368 -.00000038  00000+0 -13708-3 0  9994
2 48240  87.8965 291.5139 0001833 112.5029 247.6295 13.14501206246952
ONEWEB-0201             
1 48241U 21031AH  26159.06402043  .00000055  00000+0  11389-3 0  9992
2 48241  87.8958 291.5329 0002193 100.7292 259.4084 13.14503976247186
